{
  "type": "FeatureCollection",
  "features": [
    {
      "type": "Feature",
      "properties": {
        "norad_id": 41948,
        "name": "CARTOSAT-2D",
        "group": "resource",
        "lat": -30.85138999861265,
        "lon": -135.3107703301224,
        "alt_km": 512.4567586416051,
        "timestamp": "2025-12-17T17:50:18.909507+00:00",
        "meta_object_name": "CARTOSAT-2D",
        "meta_object_id": "2017-008A",
        "meta_epoch": "2025-12-17T07:25:43.829184",
        "meta_mean_motion": 15.19305611,
        "meta_eccentricity": 0.00050092,
        "meta_inclination": 97.4386,
        "meta_ra_of_asc_node": 48.7382,
        "meta_arg_of_pericenter": 149.3024,
        "meta_mean_anomaly": 210.8504,
        "meta_ephemeris_type": 0,
        "meta_classification_type": "U",
        "meta_norad_cat_id": 41948,
        "meta_element_set_no": 999,
        "meta_rev_at_epoch": 48996,
        "meta_bstar": 0.00022633505,
        "meta_mean_motion_dot": 4.711e-05,
        "meta_mean_motion_ddot": 0,
        "tle_line1": "1 41948U 17008A   25351.30953506  .00004711  00000+0  22634-3 0  9991",
        "tle_line2": "2 41948  97.4386  48.7382 0005009 149.3024 210.8504 15.19305611489962"
      },
      "geometry": {
        "type": "Point",
        "coordinates": [
          -135.3107703301224,
          -30.85138999861265
        ]
      }
    },
    {
      "type": "Feature",
      "properties": {
        "norad_id": 42063,
        "name": "SENTINEL-2B",
        "group": "resource",
        "lat": 21.991256834533797,
        "lon": 60.6268751681032,
        "alt_km": 788.4028336176925,
        "timestamp": "2025-12-17T17:50:18.909517+00:00",
        "meta_object_name": "SENTINEL-2B",
        "meta_object_id": "2017-013A",
        "meta_epoch": "2025-12-17T07:39:53.937792",
        "meta_mean_motion": 14.30818471,
        "meta_eccentricity": 0.00011433,
        "meta_inclination": 98.5714,
        "meta_ra_of_asc_node": 63.701,
        "meta_arg_of_pericenter": 92.5175,
        "meta_mean_anomaly": 267.6139,
        "meta_ephemeris_type": 0,
        "meta_classification_type": "U",
        "meta_norad_cat_id": 42063,
        "meta_element_set_no": 999,
        "meta_rev_at_epoch": 45863,
        "meta_bstar": 0.00010736546,
        "meta_mean_motion_dot": 2.38e-06,
        "meta_mean_motion_ddot": 0,
        "tle_line1": "1 42063U 17013A   25351.31937428  .00000238  00000+0  10737-3 0  9993",
        "tle_line2": "2 42063  98.5714  63.7010 0001143  92.5175 267.6139 14.30818471458633"
      },
      "geometry": {
        "type": "Point",
        "coordinates": [
          60.6268751681032,
          21.991256834533797
        ]
      }
    },
    {
      "type": "Feature",
      "properties": {
        "norad_id": 42767,
        "name": "CARTOSAT-2E",
        "group": "resource",
        "lat": 58.443255881278205,
        "lon": -118.42410040314711,
        "alt_km": 502.63192263095516,
        "timestamp": "2025-12-17T17:50:18.909527+00:00",
        "meta_object_name": "CARTOSAT-2E",
        "meta_object_id": "2017-036C",
        "meta_epoch": "2025-12-17T07:49:28.371648",
        "meta_mean_motion": 15.19243075,
        "meta_eccentricity": 0.00022211,
        "meta_inclination": 97.4551,
        "meta_ra_of_asc_node": 48.8535,
        "meta_arg_of_pericenter": 216.6446,
        "meta_mean_anomaly": 143.4637,
        "meta_ephemeris_type": 0,
        "meta_classification_type": "U",
        "meta_norad_cat_id": 42767,
        "meta_element_set_no": 999,
        "meta_rev_at_epoch": 47053,
        "meta_bstar": 0.00018030374,
        "meta_mean_motion_dot": 3.731e-05,
        "meta_mean_motion_ddot": 0,
        "tle_line1": "1 42767U 17036C   25351.32602282  .00003731  00000+0  18030-3 0  9992",
        "tle_line2": "2 42767  97.4551  48.8535 0002221 216.6446 143.4637 15.19243075470532"
      },
      "geometry": {
        "type": "Point",
        "coordinates": [
          -118.42410040314711,
          58.443255881278205
        ]
      }
    },
    {
      "type": "Feature",
      "properties": {
        "norad_id": 42920,
        "name": "FORMOSAT-5",
        "group": "resource",
        "lat": 26.020114828650893,
        "lon": 61.90358986765109,
        "alt_km": 723.6545387389897,
        "timestamp": "2025-12-17T17:50:18.909537+00:00",
        "meta_object_name": "FORMOSAT-5",
        "meta_object_id": "2017-049A",
        "meta_epoch": "2025-12-17T06:07:50.779776",
        "meta_mean_motion": 14.50763374,
        "meta_eccentricity": 0.00098905,
        "meta_inclination": 98.245,
        "meta_ra_of_asc_node": 65.4847,
        "meta_arg_of_pericenter": 286.3152,
        "meta_mean_anomaly": 73.6955,
        "meta_ephemeris_type": 0,
        "meta_classification_type": "U",
        "meta_norad_cat_id": 42920,
        "meta_element_set_no": 999,
        "meta_rev_at_epoch": 44029,
        "meta_bstar": 5.6482395e-05,
        "meta_mean_motion_dot": 1.78e-06,
        "meta_mean_motion_ddot": 0,
        "tle_line1": "1 42920U 17049A   25351.25544884  .00000178  00000+0  56482-4 0  9998",
        "tle_line2": "2 42920  98.2450  65.4847 0009890 286.3152  73.6955 14.50763374440298"
      },
      "geometry": {
        "type": "Point",
        "coordinates": [
          61.90358986765109,
          26.020114828650893
        ]
      }
    },
    {
      "type": "Feature",
      "properties": {
        "norad_id": 42969,
        "name": "SENTINEL-5P",
        "group": "resource",
        "lat": -36.40032520157325,
        "lon": 103.74112535638416,
        "alt_km": 833.708407323661,
        "timestamp": "2025-12-17T17:50:18.909548+00:00",
        "meta_object_name": "SENTINEL-5P",
        "meta_object_id": "2017-064A",
        "meta_epoch": "2025-12-17T06:40:13.698912",
        "meta_mean_motion": 14.19518667,
        "meta_eccentricity": 0.00010041,
        "meta_inclination": 98.7789,
        "meta_ra_of_asc_node": 289.8219,
        "meta_arg_of_pericenter": 89.7079,
        "meta_mean_anomaly": 270.4212,
        "meta_ephemeris_type": 0,
        "meta_classification_type": "U",
        "meta_norad_cat_id": 42969,
        "meta_element_set_no": 999,
        "meta_rev_at_epoch": 42375,
        "meta_bstar": 4.5426528e-05,
        "meta_mean_motion_dot": 5.2e-07,
        "meta_mean_motion_ddot": 0,
        "tle_line1": "1 42969U 17064A   25351.27793633  .00000052  00000+0  45427-4 0  9996",
        "tle_line2": "2 42969  98.7789 289.8219 0001004  89.7079 270.4212 14.19518667423751"
      },
      "geometry": {
        "type": "Point",
        "coordinates": [
          103.74112535638416,
          -36.40032520157325
        ]
      }
    },
    {
      "type": "Feature",
      "properties": {
        "norad_id": 42987,
        "name": "SKYSAT-C11",
        "group": "resource",
        "lat": 65.92760616990257,
        "lon": -33.69509377810022,
        "alt_km": 416.36957123218144,
        "timestamp": "2025-12-17T17:50:18.909563+00:00",
        "meta_object_name": "SKYSAT-C11",
        "meta_object_id": "2017-068A",
        "meta_epoch": "2025-12-17T08:02:30.918912",
        "meta_mean_motion": 15.47641035,
        "meta_eccentricity": 0.00012128,
        "meta_inclination": 97.4136,
        "meta_ra_of_asc_node": 128.9407,
        "meta_arg_of_pericenter": 105.5123,
        "meta_mean_anomaly": 254.6262,
        "meta_ephemeris_type": 0,
        "meta_classification_type": "U",
        "meta_norad_cat_id": 42987,
        "meta_element_set_no": 999,
        "meta_rev_at_epoch": 45502,
        "meta_bstar": 0.00036737517,
        "meta_mean_motion_dot": 0.00018888,
        "meta_mean_motion_ddot": 0,
        "tle_line1": "1 42987U 17068A   25351.33508008  .00018888  00000+0  36738-3 0  9997",
        "tle_line2": "2 42987  97.4136 128.9407 0001212 105.5123 254.6262 15.47641035455025"
      },
      "geometry": {
        "type": "Point",
        "coordinates": [
          -33.69509377810022,
          65.92760616990257
        ]
      }
    },
    {
      "type": "Feature",
      "properties": {
        "norad_id": 42988,
        "name": "SKYSAT-C10",
        "group": "resource",
        "lat": -80.62264729577312,
        "lon": 174.77101929892788,
        "alt_km": 480.4043138222787,
        "timestamp": "2025-12-17T17:50:18.909575+00:00",
        "meta_object_name": "SKYSAT-C10",
        "meta_object_id": "2017-068B",
        "meta_epoch": "2025-12-17T07:14:03.216768",
        "meta_mean_motion": 15.3216022,
        "meta_eccentricity": 0.0005427,
        "meta_inclination": 97.4256,
        "meta_ra_of_asc_node": 122.1647,
        "meta_arg_of_pericenter": 91.0568,
        "meta_mean_anomaly": 269.1296,
        "meta_ephemeris_type": 0,
        "meta_classification_type": "U",
        "meta_norad_cat_id": 42988,
        "meta_element_set_no": 999,
        "meta_rev_at_epoch": 45449,
        "meta_bstar": 0.00030532325,
        "meta_mean_motion_dot": 9.408e-05,
        "meta_mean_motion_ddot": 0,
        "tle_line1": "1 42988U 17068B   25351.30142612  .00009408  00000+0  30532-3 0  9994",
        "tle_line2": "2 42988  97.4256 122.1647 0005427  91.0568 269.1296 15.32160220454499"
      },
      "geometry": {
        "type": "Point",
        "coordinates": [
          174.77101929892788,
          -80.62264729577312
        ]
      }
    }
  ]
}